STARLINK-6359           
1 57346U 23099U   25345.09091618  .00000424  00000+0  46481-4 0  9997
2 57346  43.0058   9.9915 0001195 255.7491 104.3219 15.02532356132793
STARLINK-6378           
1 57347U 23099V   25345.10312452  .00000790  00000+0  73536-4 0  9999
2 57347  43.0032  10.0850 0001035 262.6322  97.4403 15.02535240132792
STARLINK-6372           
1 57348U 23099W   25345.08536406  .00001111  00000+0  97280-4 0  9994
2 57348  43.0084   9.9565 0002038 273.6956  86.3654 15.02539635132796
STARLINK-6376           
1 57349U 23099X   25345.08758525  .00000245  00000+0  33202-4 0  9994
2 57349  43.0078   9.9721 0001592 272.8122  87.2539 15.02535346133512
STARLINK-6362           
1 57350U 23099Y   25345.09350645  .00000285  00000+0  36168-4 0  9996
2 57350  43.0042 357.8489 0001391 266.6848  93.3835 15.02535918132931
STARLINK-6331           
1 57351U 23099Z   25345.08423432 -.00011076  00000+0 -80478-3 0  9995
2 57351  43.0065   9.9455 0001516 271.0686  88.9982 15.02597101132793
STARLINK-6297           
1 57352U 23099AA  25345.08684821  .00003992  00000+0  31053-3 0  9998
2 57352  43.0055 357.7992 0000988 253.8436 106.2297 15.02525418132937
STARLINK-6324           
1 57353U 23099AB  25345.14850941  .00001152  00000+0  10035-3 0  9997
2 57353  43.0074   9.5694 0001412 266.7276  93.3404 15.02540944132801
STARLINK-6293           
1 57354U 23099AC  25345.07797221  .00000186  00000+0  28870-4 0  9994
2 57354  43.0045 357.7323 0001169 271.6074  88.4635 15.02537485132938
STARLINK-6276           
1 57355U 23099AD  25345.09017718  .00000469  00000+0  49801-4 0  9994
2 57355  43.0047 357.8235 0001190 268.8578  91.2128 15.02535741132937
STARLINK-6355           
1 57356U 23099AE  25345.07685999  .00000096  00000+0  22209-4 0  9994
2 57356  43.0051 357.7210 0001062 269.8889  90.1831 15.02535006132932
STARLINK-5600           
1 57357U 23099AF  25345.08462879  .00000872  00000+0  79602-4 0  9997
2 57357  43.0055 357.7819 0001301 261.2067  98.8629 15.02537772132934
STARLINK-6299           
1 57358U 23099AG  25345.07130759  .00001174  00000+0  10193-3 0  9991
2 57358  43.0056 357.6778 0001307 267.4574  92.6119 15.02537657133676
STARLINK-6347           
1 57359U 23099AH  25345.08795712  .00001215  00000+0  10497-3 0  9992
2 57359  43.0055 357.8068 0001206 262.1780  97.8925 15.02538520132939
STARLINK-6348           
1 57360U 23099AJ  25344.33338997  .00000429  00000+0  46830-4 0  9996
2 57360  43.0057   1.6027 0001356 268.0737  91.9950 15.02541820132823
STARLINK-6340           
1 57361U 23099AK  25345.07354591 -.00000155  00000+0  35754-5 0  9998
2 57361  43.0044 357.6957 0001153 275.5693  84.5018 15.02532125132938
