[{"OBJECT_NAME":"STARLINK-6359","OBJECT_ID":"2023-099U","EPOCH":"2025-12-11T02:10:55.157952","MEAN_MOTION":15.02532356,"ECCENTRICITY":0.00011959,"INCLINATION":43.0058,"RA_OF_ASC_NODE":9.9915,"ARG_OF_PERICENTER":255.7491,"MEAN_ANOMALY":104.3219,"EPHEMERIS_TYPE":0,"CLASSIFICATION_TYPE":"U","NORAD_CAT_ID":57346,"ELEMENT_SET_NO":999,"REV_AT_EPOCH":13279,"BSTAR":4.6480932e-5,"MEAN_MOTION_DOT":4.24e-6,"MEAN_MOTION_DDOT":0},{"OBJECT_NAME":"STARLINK-6378","OBJECT_ID":"2023-099V","EPOCH":"2025-12-11T02:28:29.958528","MEAN_MOTION":15.0253524,"ECCENTRICITY":0.00010352,"INCLINATION":43.0032,"RA_OF_ASC_NODE":10.085,"ARG_OF_PERICENTER":262.6322,"MEAN_ANOMALY":97.4403,"EPHEMERIS_TYPE":0,"CLASSIFICATION_TYPE":"U","NORAD_CAT_ID":57347,"ELEMENT_SET_NO":999,"REV_AT_EPOCH":13279,"BSTAR":7.3536013e-5,"MEAN_MOTION_DOT":7.9e-6,"MEAN_MOTION_DDOT":0},{"OBJECT_NAME":"STARLINK-6372","OBJECT_ID":"2023-099W","EPOCH":"2025-12-11T02:02:55.454784","MEAN_MOTION":15.02539635,"ECCENTRICITY":0.00020384,"INCLINATION":43.0084,"RA_OF_ASC_NODE":9.9565,"ARG_OF_PERICENTER":273.6956,"MEAN_ANOMALY":86.3654,"EPHEMERIS_TYPE":0,"CLASSIFICATION_TYPE":"U","NORAD_CAT_ID":57348,"ELEMENT_SET_NO":999,"REV_AT_EPOCH":13279,"BSTAR":9.7279902e-5,"MEAN_MOTION_DOT":1.111e-5,"MEAN_MOTION_DDOT":0},{"OBJECT_NAME":"STARLINK-6376","OBJECT_ID":"2023-099X","EPOCH":"2025-12-11T02:06:07.365600","MEAN_MOTION":15.02535346,"ECCENTRICITY":0.00015925,"INCLINATION":43.0078,"RA_OF_ASC_NODE":9.9721,"ARG_OF_PERICENTER":272.8122,"MEAN_ANOMALY":87.2539,"EPHEMERIS_TYPE":0,"CLASSIFICATION_TYPE":"U","NORAD_CAT_ID":57349,"ELEMENT_SET_NO":999,"REV_AT_EPOCH":13351,"BSTAR":3.3202345e-5,"MEAN_MOTION_DOT":2.45e-6,"MEAN_MOTION_DDOT":0},{"OBJECT_NAME":"STARLINK-6362","OBJECT_ID":"2023-099Y","EPOCH":"2025-12-11T02:14:38.957280","MEAN_MOTION":15.02535918,"ECCENTRICITY":0.00013917,"INCLINATION":43.0042,"RA_OF_ASC_NODE":357.8489,"ARG_OF_PERICENTER":266.6848,"MEAN_ANOMALY":93.3835,"EPHEMERIS_TYPE":0,"CLASSIFICATION_TYPE":"U","NORAD_CAT_ID":57350,"ELEMENT_SET_NO":999,"REV_AT_EPOCH":13293,"BSTAR":3.6167516e-5,"MEAN_MOTION_DOT":2.85e-6,"MEAN_MOTION_DDOT":0},{"OBJECT_NAME":"STARLINK-6331","OBJECT_ID":"2023-099Z","EPOCH":"2025-12-11T02:01:17.845248","MEAN_MOTION":15.02597101,"ECCENTRICITY":0.00015163,"INCLINATION":43.0065,"RA_OF_ASC_NODE":9.9455,"ARG_OF_PERICENTER":271.0686,"MEAN_ANOMALY":88.9982,"EPHEMERIS_TYPE":0,"CLASSIFICATION_TYPE":"U","NORAD_CAT_ID":57351,"ELEMENT_SET_NO":999,"REV_AT_EPOCH":13279,"BSTAR":-0.0008047773,"MEAN_MOTION_DOT":-0.00011076,"MEAN_MOTION_DDOT":0},{"OBJECT_NAME":"STARLINK-6297","OBJECT_ID":"2023-099AA","EPOCH":"2025-12-11T02:05:03.685344","MEAN_MOTION":15.02525418,"ECCENTRICITY":9.882e-5,"INCLINATION":43.0055,"RA_OF_ASC_NODE":357.7992,"ARG_OF_PERICENTER":253.8436,"MEAN_ANOMALY":106.2297,"EPHEMERIS_TYPE":0,"CLASSIFICATION_TYPE":"U","NORAD_CAT_ID":57352,"ELEMENT_SET_NO":999,"REV_AT_EPOCH":13293,"BSTAR":0.00031052562,"MEAN_MOTION_DOT":3.992e-5,"MEAN_MOTION_DDOT":0},{"OBJECT_NAME":"STARLINK-6324","OBJECT_ID":"2023-099AB","EPOCH":"2025-12-11T03:33:51.213024","MEAN_MOTION":15.02540944,"ECCENTRICITY":0.00014123,"INCLINATION":43.0074,"RA_OF_ASC_NODE":9.5694,"ARG_OF_PERICENTER":266.7276,"MEAN_ANOMALY":93.3404,"EPHEMERIS_TYPE":0,"CLASSIFICATION_TYPE":"U","NORAD_CAT_ID":57353,"ELEMENT_SET_NO":999,"REV_AT_EPOCH":13280,"BSTAR":0.00010035121,"MEAN_MOTION_DOT":1.152e-5,"MEAN_MOTION_DDOT":0},{"OBJECT_NAME":"STARLINK-6293","OBJECT_ID":"2023-099AC","EPOCH":"2025-12-11T01:52:16.798944","MEAN_MOTION":15.02537485,"ECCENTRICITY":0.00011696,"INCLINATION":43.0045,"RA_OF_ASC_NODE":357.7323,"ARG_OF_PERICENTER":271.6074,"MEAN_ANOMALY":88.4635,"EPHEMERIS_TYPE":0,"CLASSIFICATION_TYPE":"U","NORAD_CAT_ID":57354,"ELEMENT_SET_NO":999,"REV_AT_EPOCH":13293,"BSTAR":2.8870043e-5,"MEAN_MOTION_DOT":1.86e-6,"MEAN_MOTION_DDOT":0},{"OBJECT_NAME":"STARLINK-6276","OBJECT_ID":"2023-099AD","EPOCH":"2025-12-11T02:09:51.308352","MEAN_MOTION":15.02535741,"ECCENTRICITY":0.00011906,"INCLINATION":43.0047,"RA_OF_ASC_NODE":357.8235,"ARG_OF_PERICENTER":268.8578,"MEAN_ANOMALY":91.2128,"EPHEMERIS_TYPE":0,"CLASSIFICATION_TYPE":"U","NORAD_CAT_ID":57355,"ELEMENT_SET_NO":999,"REV_AT_EPOCH":13293,"BSTAR":4.9801243e-5,"MEAN_MOTION_DOT":4.69e-6,"MEAN_MOTION_DDOT":0},{"OBJECT_NAME":"STARLINK-6355","OBJECT_ID":"2023-099AE","EPOCH":"2025-12-11T01:50:40.703136","MEAN_MOTION":15.02535006,"ECCENTRICITY":0.00010629,"INCLINATION":43.0051,"RA_OF_ASC_NODE":357.721,"ARG_OF_PERICENTER":269.8889,"MEAN_ANOMALY":90.1831,"EPHEMERIS_TYPE":0,"CLASSIFICATION_TYPE":"U","NORAD_CAT_ID":57356,"ELEMENT_SET_NO":999,"REV_AT_EPOCH":13293,"BSTAR":2.2209003e-5,"MEAN_MOTION_DOT":9.6e-7,"MEAN_MOTION_DDOT":0},{"OBJECT_NAME":"STARLINK-5600","OBJECT_ID":"2023-099AF","EPOCH":"2025-12-11T02:01:51.927456","MEAN_MOTION":15.02537772,"ECCENTRICITY":0.00013013,"INCLINATION":43.0055,"RA_OF_ASC_NODE":357.7819,"ARG_OF_PERICENTER":261.2067,"MEAN_ANOMALY":98.8629,"EPHEMERIS_TYPE":0,"CLASSIFICATION_TYPE":"U","NORAD_CAT_ID":57357,"ELEMENT_SET_NO":999,"REV_AT_EPOCH":13293,"BSTAR":7.9601643e-5,"MEAN_MOTION_DOT":8.72e-6,"MEAN_MOTION_DDOT":0},{"OBJECT_NAME":"STARLINK-6299","OBJECT_ID":"2023-099AG","EPOCH":"2025-12-11T01:42:40.975776","MEAN_MOTION":15.02537657,"ECCENTRICITY":0.00013077,"INCLINATION":43.0056,"RA_OF_ASC_NODE":357.6778,"ARG_OF_PERICENTER":267.4574,"MEAN_ANOMALY":92.6119,"EPHEMERIS_TYPE":0,"CLASSIFICATION_TYPE":"U","NORAD_CAT_ID":57358,"ELEMENT_SET_NO":999,"REV_AT_EPOCH":13367,"BSTAR":0.00010193131,"MEAN_MOTION_DOT":1.174e-5,"MEAN_MOTION_DDOT":0},{"OBJECT_NAME":"STARLINK-6347","OBJECT_ID":"2023-099AH","EPOCH":"2025-12-11T02:06:39.495168","MEAN_MOTION":15.0253852,"ECCENTRICITY":0.00012063,"INCLINATION":43.0055,"RA_OF_ASC_NODE":357.8068,"ARG_OF_PERICENTER":262.178,"MEAN_ANOMALY":97.8925,"EPHEMERIS_TYPE":0,"CLASSIFICATION_TYPE":"U","NORAD_CAT_ID":57359,"ELEMENT_SET_NO":999,"REV_AT_EPOCH":13293,"BSTAR":0.00010497381,"MEAN_MOTION_DOT":1.215e-5,"MEAN_MOTION_DDOT":0},{"OBJECT_NAME":"STARLINK-6348","OBJECT_ID":"2023-099AJ","EPOCH":"2025-12-10T08:00:04.893408","MEAN_MOTION":15.0254182,"ECCENTRICITY":0.00013563,"INCLINATION":43.0057,"RA_OF_ASC_NODE":1.6027,"ARG_OF_PERICENTER":268.0737,"MEAN_ANOMALY":91.995,"EPHEMERIS_TYPE":0,"CLASSIFICATION_TYPE":"U","NORAD_CAT_ID":57360,"ELEMENT_SET_NO":999,"REV_AT_EPOCH":13282,"BSTAR":4.6829615e-5,"MEAN_MOTION_DOT":4.29e-6,"MEAN_MOTION_DDOT":0},{"OBJECT_NAME":"STARLINK-6340","OBJECT_ID":"2023-099AK","EPOCH":"2025-12-11T01:45:54.366624","MEAN_MOTION":15.02532125,"ECCENTRICITY":0.00011536,"INCLINATION":43.0044,"RA_OF_ASC_NODE":357.6957,"ARG_OF_PERICENTER":275.5693,"MEAN_ANOMALY":84.5018,"EPHEMERIS_TYPE":0,"CLASSIFICATION_TYPE":"U","NORAD_CAT_ID":57361,"ELEMENT_SET_NO":999,"REV_AT_EPOCH":13293,"BSTAR":3.575378e-6,"MEAN_MOTION_DOT":-1.55e-6,"MEAN_MOTION_DDOT":0}]
